[{"OBJECT_NAME":"AURA","OBJECT_ID":"2004-026A","EPOCH":"2026-03-09T21:39:31.960800","MEAN_MOTION":14.61149986,"ECCENTRICITY":0.0001042,"INCLINATION":98.3311,"RA_OF_ASC_NODE":24.6066,"ARG_OF_PERICENTER":85.0806,"MEAN_ANOMALY":275.0513,"EPHEMERIS_TYPE":0,"CLASSIFICATION_TYPE":"U","NORAD_CAT_ID":28376,"ELEMENT_SET_NO":999,"REV_AT_EPOCH":15171,"BSTAR":0.00028939986,"MEAN_MOTION_DOT":1.376e-5,"MEAN_MOTION_DDOT":0},{"OBJECT_NAME":"COSMOS 2251 DEB","OBJECT_ID":"1993-036AKP","EPOCH":"2026-03-08T04:38:01.244544","MEAN_MOTION":14.61051386,"ECCENTRICITY":0.01414099,"INCLINATION":74.0377,"RA_OF_ASC_NODE":136.8532,"ARG_OF_PERICENTER":204.7962,"MEAN_ANOMALY":154.6366,"EPHEMERIS_TYPE":0,"CLASSIFICATION_TYPE":"U","NORAD_CAT_ID":35445,"ELEMENT_SET_NO":999,"REV_AT_EPOCH":88576,"BSTAR":0.0027177796,"MEAN_MOTION_DOT":0.00015384,"MEAN_MOTION_DDOT":0}]
